METEOR-M2-4
1 59051U 24039A   26085.95339583  .00000051  00000+0  42632-4 0  9990
2 59051  98.6933  46.3213 0008001  53.1145 307.0765 14.22419868107570
SONATE-2
1 59112U 24043Q   26085.93838100  .00042794  00000+0  69167-3 0  9991
2 59112  97.5424 231.7177 0008109 144.0127 216.1673 15.52704872115101
GRBBeta
1 60237U 24128C   26085.57310839  .00003499  00000+0  24729-3 0  9993
2 60237  61.9894 145.9716 0049838 117.3571 243.2607 15.05965790 93820
Curium One
1 60242U 24128H   26085.56175522  .00006697  00000+0  39865-3 0  9996
2 60242  61.9783 138.1242 0049449 113.6430 246.9867 15.11169719 93969
ROBUSTA-3A
1 60243U 24128J   26085.41559222  .00006880  00000+0  41766-3 0  9991
2 60243  61.9858 140.6672 0050159 111.3058 249.3402 15.10396342 93919
CatSat
1 60246U 24125J   26085.54316128  .00044251  00000+0  76752-3 0  9998
2 60246  97.2189 297.4527 0027715 127.5129 232.8648 15.50308159 94554
ARTIC WX
1 60543U 24149CD  26085.67532601  .00000983  00000+0  10807-3 0  9997
2 60543  97.6855 158.4804 0002973  53.1494 306.9997 14.89808038 87015
ARCTICSAT 1
1 61762U 24199AD  26085.93097257  .00131224  00000+0  11000-2 0  9996
2 61762  97.3045 324.9555 0005590 168.3895 191.7497 15.69527535125097
HYPERVIEW-1G (RS66S)
1 61772U 24199AP  26085.95640199  .00080303  00000+0  97113-3 0  9999
2 61772  97.3054 322.5053 0007178 202.5708 157.5235 15.60410446121799
AO-123
1 61781U 24199AY  26085.89970450  .00009252  00000+0  27944-3 0  9997
2 61781  97.3130 315.3264 0012607 240.3152 119.6837 15.34391572121307
SAMSAT-IONOSPHERE
1 61784U 24199BB  26085.90521950  .00042737  00000+0  73612-3 0  9997
2 61784  97.3090 320.2142 0008910 215.2596 144.8068 15.50910495124780
LASARsat
1 62391U 24247Q   26085.93136480  .00034304  00000+0  81022-3 0  9994
2 62391  44.9773   2.6866 0003916 192.0953 167.9841 15.41310998 70603
CROCUBE
1 62394U 24247T   26085.17054818  .00035038  00000+0  79483-3 0  9990
2 62394  44.9745   5.3779 0003324 184.6632 175.4226 15.42513798 70506
JINJUSat 1B
1 63210U 25052A   26085.66234107  .00017047  00000+0  57410-3 0  9994
2 63210  97.4091 342.4272 0004618  44.5192 315.6419 15.30821035 57461
NUSHSAT 1
1 63211U 25052B   26085.69133972  .00020253  00000+0  64346-3 0  9995
2 63211  97.4072 342.7769 0004661  48.2715 311.8925 15.32661115 57491
TEVEL2-4
1 63213U 25052D   26085.42309741  .00017757  00000+0  58354-3 0  9994
2 63213  97.3994 341.8177 0004379  63.9113 296.2578 15.31604474 57438
TEVEL2-5
1 63214U 25052E   26085.43542768  .00018075  00000+0  59629-3 0  9994
2 63214  97.3993 341.7990 0004384  63.7003 296.4689 15.31475093 57430
TEVEL2-6
1 63215U 25052F   26085.64171711  .00018360  00000+0  60625-3 0  9999
2 63215  97.3998 341.9904 0004494  63.2772 296.8928 15.31441651 57469
TEVEL2-1
1 63217U 25052H   26085.25255323  .00017343  00000+0  58095-3 0  9998
2 63217  97.3973 341.3176 0004878  72.3829 287.7945 15.30988259 57398
TEVEL2-3
1 63218U 25052J   26085.64187350  .00017906  00000+0  59869-3 0  9991
2 63218  97.3974 341.7186 0004817  71.3974 288.7790 15.31042589 57452
TEVEL2-2
1 63219U 25052K   26085.44925931  .00017827  00000+0  59685-3 0  9993
2 63219  97.3971 341.5148 0004772  72.4425 287.7337 15.30999895 57422
TEVEL2-9
1 63237U 25052AD  26085.26037502  .00016341  00000+0  57755-3 0  9997
2 63237  97.4031 340.8663 0008418  79.7092 280.5097 15.29234747 57346
TEVEL2-7
1 63238U 25052AE  26085.67975966  .00015579  00000+0  55441-3 0  9990
2 63238  97.4035 341.2308 0008601  78.5117 281.7089 15.29017796 57405
TEVEL2-8
1 63239U 25052AF  26085.42524280  .00015462  00000+0  55080-3 0  9993
2 63239  97.4035 340.9575 0008625  79.7917 280.4295 15.28987287 57365
HYDRA-W
1 63490U 25052BL  26084.99052791  .00262142  00000+0  20333-2 0  9997
2 63490  97.3880 346.9856 0007783  86.3300 273.8853 15.71002589 57742
HADES-ICM (SO-125)
1 63492U 25052BN  26085.44553677  .00168841  00000+0  18870-2 0  9993
2 63492  97.3907 346.5638 0008276  81.3517 278.8679 15.62159454 57757
PARUS-T2
1 64574U 25135AY  26085.92700485  .00004168  00000+0  38568-3 0  9999
2 64574  97.7625 201.6119 0001268 198.1850 161.9326 14.95068261 41637
SPIRONE
1 66657U 25274H   26085.70592551  .00002165  00000+0  21264-3 0  9996
2 66657  97.7446  16.2152 0010685 292.8315  67.1776 14.93173273 17918
K-HERO
1 66660U 25274L   26085.33226679  .00002286  00000+0  22164-3 0  9998
2 66660  97.7448  15.9460 0012721 297.9464  62.0467 14.93616262 17861
SNUGLITE-III DURI
1 66661U 25274M   26085.25623324  .00001636  00000+0  15986-3 0  9990
2 66661  97.7446  15.8874 0013415 299.3057  60.6822 14.93691085 17857
SilverSat
1 66909U 98067XV  26085.89144354  .00310372  00000+0  15341-2 0  9990
2 66909  51.6221 336.2271 0006697 196.8572 163.2209 15.80614187 17900
GALAPAGOS
1 67279U 25313AH  26085.90812398  .00007898  00000+0  35171-3 0  9997
2 67279  97.3968 161.8667 0012883 294.4455  65.5437 15.21651221 13432
Lobachevsky
1 67282U 25313AL  26085.93565505  .00006007  00000+0  26476-3 0  9998
2 67282  97.3971 161.9700 0009238 290.4168  69.6076 15.22140353 13441
SAKHACUBE-CHOLBON
1 67290U 25313AU  26085.89571769  .00011599  00000+0  49138-3 0  9993
2 67290  97.3979 162.0394 0008065 286.0847  73.9501 15.23281672 13443
RS95S (QMR-KWT-2)
1 67291U 25313AV  26085.94192401  .00016008  00000+0  66210-3 0  9992
2 67291  97.3978 162.1292 0007798 283.1673  76.8694 15.24019505 13459
Ten-Koh2
1 68261U 25241B   26085.94707943  .00009447  00000+0  41322-3 0  9999
2 68261  51.6377 350.8127 0004436 217.7972 142.2694 15.22706866  2375
Delfi-N3xt
1 39428U 13066N   26085.69472717  .00006368  00000-0  56961-3 0  9999
2 39428  97.8334   6.1524 0077374 120.3653 240.5246 14.93915644662304
IO-86
1 40931U          25360.30710720  .00000000  00000-0  12800-3 0    00
2 40931   6.0006 332.5373 0012733 338.8432   8.1437 14.79075515    01
PARUS-T1
1 98707U 25009N   25063.20000000  .00000000  00000-0  00000-0 0    08
2 98707  97.4430 144.9801 0003811 149.1702 136.3402 15.16239457    06
T.MicroSat-1
1 98515U 25276Y   25347.12519372 +.00009703 +00000+0 +47621-3 0 00218
2 98515  97.4377  58.8963 0002080  99.7173 260.4296 15.18293117002180
CORIOLIS
1 27640U 03001A   26085.96392364  .00000148  00000+0  90172-4 0  9991
2 27640  98.7160  94.0962 0015164  90.0301 270.2613 14.19919361202551
